{
  "name": "SATGUS",
  "line1": "1 62713U 25009DJ  25206.74733997  .00005023  00000+0  45572-3 0  9994",
  "line2": "2 62713  97.7332 286.5497 0003313 133.7001 226.4494 14.95746889 28673",
  "fetched_at": "2025-07-27T00:21:42.148357+00:00"
}